{
    "links": {
        "self": "http://www.neowsapp.com/rest/v1/neo/54051250?api_key=iIulBulltgU6a56xZRHN4H3l9WmuAYTsLGpBGhQ2"
    },
    "id": "54051250",
    "neo_reference_id": "54051250",
    "name": "(2020 QY1)",
    "designation": "2020 QY1",
    "nasa_jpl_url": "http://ssd.jpl.nasa.gov/sbdb.cgi?sstr=54051250",
    "absolute_magnitude_h": 21.974,
    "estimated_diameter": {
        "kilometers": {
            "estimated_diameter_min": 0.1070914938,
            "estimated_diameter_max": 0.23946386
        },
        "meters": {
            "estimated_diameter_min": 107.0914938251,
            "estimated_diameter_max": 239.463860005
        },
        "miles": {
            "estimated_diameter_min": 0.0665435486,
            "estimated_diameter_max": 0.1487958982
        },
        "feet": {
            "estimated_diameter_min": 351.3500566013,
            "estimated_diameter_max": 785.6426104588
        }
    },
    "is_potentially_hazardous_asteroid": false,
    "close_approach_data": [
        {
            "close_approach_date": "2020-09-01",
            "close_approach_date_full": "2020-Sep-01 12:04",
            "epoch_date_close_approach": 1598961840000,
            "relative_velocity": {
                "kilometers_per_second": "26.7231598375",
                "kilometers_per_hour": "96203.3754149615",
                "miles_per_hour": "59777.0362404798"
            },
            "miss_distance": {
                "astronomical": "0.1990780184",
                "lunar": "77.4413491576",
                "kilometers": "29781647.516460808",
                "miles": "18505457.6572548304"
            },
            "orbiting_body": "Earth"
        }
    ],
    "orbital_data": {
        "orbit_id": "9",
        "orbit_determination_date": "2020-10-26 09:36:06",
        "first_observation_date": "2020-08-13",
        "last_observation_date": "2020-09-04",
        "data_arc_in_days": 22,
        "observations_used": 59,
        "orbit_uncertainty": "7",
        "minimum_orbit_intersection": ".095986",
        "jupiter_tisserand_invariant": "2.688",
        "epoch_osculation": "2459000.5",
        "eccentricity": ".7751862276547726",
        "semi_major_axis": "2.668992599995512",
        "inclination": "35.31333702026958",
        "ascending_node_longitude": "324.7104201982952",
        "orbital_period": "1592.646829469546",
        "perihelion_distance": ".6000262947664876",
        "perihelion_argument": "108.7344637717805",
        "aphelion_distance": "4.737958905224536",
        "perihelion_time": "2459147.458567777475",
        "mean_anomaly": "326.7816596743473",
        "mean_motion": ".2260388137148418",
        "equinox": "J2000",
        "orbit_class": {
            "orbit_class_type": "APO",
            "orbit_class_description": "Near-Earth asteroid orbits which cross the Earth’s orbit similar to that of 1862 Apollo",
            "orbit_class_range": "a (semi-major axis) > 1.0 AU; q (perihelion) < 1.017 AU"
        }
    },
    "is_sentry_object": false
}